# From MPC106342
C/1995 O1 (Hale-Bopp),e,89.0396,283.2534,130.7626,182.3695,0.0004002,0.99490933,0.0000,03/29.4634/1997,2000,g -2.0,4.0
# From NK 1615
P/1996 R2 (Lagerkvist),e,2.6009,40.0509,333.2869,3.772967,0.1344868,0.31346404,359.5355,02/08.0/2019,2000,g 11.5,4.0
# From MPC 30063
P/1997 B1 (Kobayashi),e,12.3469,328.9304,183.4168,8.554389,0.0393931,0.76030564,314.9116,02/08.0/2019,2000,g 15.0,2.0
# From MPC 75703
P/1998 VS24 (LINEAR),e,5.0225,159.0399,244.8808,4.533453,0.1021081,0.24159359,39.3398,02/08.0/2019,2000,g 13.0,2.0
# From NK 1780
P/1999 D1 (Hermann),e,21.3182,348.7789,174.1110,5.761799,0.0712635,0.71294250,159.8910,02/08.0/2019,2000,g 15.0,4.0
# From CCO 17
P/1999 R1 (SOHO),e,11.4584,351.8707,56.5868,2.509874,0.2478713,0.97983290,0.0000,08/31.4577/2019,2000,g 27.0,6.0
# From NK 731
P/1999 RO28 (LONEOS),e,7.5647,137.8864,231.2716,3.426674,0.1553799,0.67183478,338.5556,02/08.0/2019,2000,g 20.0,2.0
# From MPC 75704
P/1999 XN120 (Catalina),e,5.0297,285.2966,161.9951,4.179479,0.1153508,0.21101179,69.8795,02/08.0/2019,2000,g 13.5,2.0
# From NK 744
P/2000 R2 (LINEAR),e,11.6830,160.3136,176.4519,3.464879,0.1528171,0.53146450,340.2429,02/08.0/2019,2000,g 18.0,4.0
# From MPC 73461
P/2000 S4 (LINEAR-Spacewatch),e,28.3745,173.8016,173.0685,7.115709,0.0519250,0.68161128,348.0274,02/08.0/2019,2000,g 17.5,2.0
# From MPC 75704
P/2001 BB50 (LINEAR-NEAT),e,10.3563,351.2007,193.6550,5.738504,0.0716978,0.58672841,116.0643,02/08.0/2019,2000,g 13.0,4.0
# From MPC 43019
P/2001 H5 (NEAT),e,8.3744,328.6982,224.8388,6.096767,0.0654719,0.59966012,78.9264,02/08.0/2019,2000,g 12.0,4.0
# From MPC 75704
P/2001 Q6 (NEAT),e,56.8694,22.0352,43.0390,7.939995,0.0440528,0.82259001,278.5769,02/08.0/2019,2000,g 13.5,4.0
# From MPC 47727
P/2002 EJ57 (LINEAR),e,4.9767,330.4296,167.0426,6.461853,0.0600024,0.59339352,14.0636,02/08.0/2019,2000,g 12.5,4.0
# From MPC109588
P/2002 T5 (LINEAR),e,30.8579,123.1008,326.8960,6.992341,0.0533053,0.43719224,304.4177,02/08.0/2019,2000,g  8.0,4.0
# From MPC109588
P/2002 T6 (NEAT-LINEAR),e,10.8588,207.2737,218.9857,7.650535,0.0465764,0.55925384,267.0426,02/08.0/2019,2000,g 10.5,4.0
# From MPC 75007
C/2002 VQ94 (LINEAR),e,70.4582,34.9108,100.2119,189.5586,0.0003776,0.96397494,1.7960,02/08.0/2019,2000,g  9.5,2.0
# From MPC 50354
P/2003 F2 (NEAT),e,11.6046,359.0943,191.7968,6.488442,0.0596339,0.54223454,343.4896,02/08.0/2019,2000,g 16.5,2.0
# From MPC 75704
P/2003 L1 (Scotti),e,9.0206,226.0645,354.8277,6.718442,0.0565980,0.25313322,330.6888,02/08.0/2019,2000,g  8.5,4.0
# From MPC 50139
P/2003 QX29 (NEAT),e,11.3899,264.6060,37.1830,8.046315,0.0431826,0.47212653,257.6476,02/08.0/2019,2000,g  8.5,4.0
# From MPC 99268
P/2003 T12 (SOHO),e,11.0371,174.8255,219.5748,2.586178,0.2369826,0.77048185,252.5163,02/08.0/2019,2000,g 17.0,4.0
# From MPC 75705
P/2003 U3 (NEAT),e,7.0103,347.9859,356.8332,5.054353,0.0867373,0.50927393,136.7542,02/08.0/2019,2000,g 13.5,4.0
# From MPC 82312
P/2004 A1 (LONEOS),e,10.5549,124.8761,21.6886,7.941907,0.0440369,0.31047464,232.0089,02/08.0/2019,2000,g  6.5,4.0
# From MPC 54558
P/2004 DO29 (Spacewatch-LINEAR),e,14.5317,147.4359,40.7597,7.278663,0.0501911,0.44226585,262.5135,02/08.0/2019,2000,g 13.5,2.0
# From MPC 54823
P/2004 FY140 (LINEAR),e,2.1357,326.7776,242.3828,4.896872,0.0909549,0.16977064,117.4903,02/08.0/2019,2000,g 12.5,2.0
# From MPC 53304
P/2004 R3 (LINEAR-NEAT),e,12.7825,305.7470,40.6744,4.745670,0.0953362,0.26045725,267.0839,02/08.0/2019,2000,g 14.5,4.0
# From MPC 55521
P/2004 V3 (Siding Spring),e,50.3905,356.0979,322.2028,7.149448,0.0515579,0.44573225,269.8558,02/08.0/2019,2000,g 11.5,4.0
# From MPC 75705
P/2004 V5 (LINEAR-Hill),e,19.3528,47.7197,88.0231,7.964158,0.0438525,0.44441779,223.3913,02/08.0/2019,2000,g  8.0,4.0
# From MPC 75705
P/2004 WR9 (LINEAR),e,4.9303,24.8872,72.0334,6.145026,0.0647021,0.68271517,332.9109,02/08.0/2019,2000,g 14.5,4.0
# From MPC 54164
P/2005 E1 (Tubbiolo),e,4.2647,335.6254,194.2231,7.031679,0.0528586,0.37594662,270.4203,02/08.0/2019,2000,g 10.0,4.0
# From MPEC 2018-X49
P/2005 GF8 (LONEOS),e,1.1923,314.9069,285.3848,5.854832,0.0695717,0.51647296,343.7723,02/08.0/2019,2000,g 12.5,4.0
# From MPC 79019
P/2005 J1 (McNaught),e,31.7696,268.7959,338.9151,3.568629,0.1462016,0.57030936,17.2702,02/08.0/2019,2000,g 16.5,4.0
# From MPC 75705
P/2005 JD108 (Catalina-NEAT),e,3.2819,223.8091,90.0027,6.508447,0.0593592,0.37556074,297.0870,02/08.0/2019,2000,g 10.0,4.0
# From MPC 74246
P/2005 L1 (McNaught),e,7.7366,138.2387,149.4981,3.978196,0.1242152,0.20893028,236.0333,02/08.0/2019,2000,g  9.5,4.0
# From MPC 87062
C/2005 L3 (McNaught),e,139.5524,288.7748,47.2060,3629,0.0000045,0.99845238,0.0000,01/10.8819/2008,2000,g  4.0,4.0
# From MPC 75706
P/2005 S2 (Skiff),e,3.1354,161.1724,229.5046,8.019408,0.0434001,0.19574111,201.7819,02/08.0/2019,2000,g  7.5,4.0
# From MPC 75706
P/2005 SB216 (LONEOS),e,24.0546,1.3342,83.4943,7.119444,0.0518842,0.46262860,228.0492,02/08.0/2019,2000,g 12.0,2.0
# From MPC 55717
P/2005 T2 (Christensen),e,8.2935,260.1675,58.9771,3.846106,0.1306689,0.41714059,304.3664,02/08.0/2019,2000,g 14.5,4.0
# From MPC 73461
P/2005 T3 (Read),e,6.2367,27.8979,7.9881,7.561064,0.0474056,0.17234435,228.3157,02/08.0/2019,2000,g  9.0,4.0
# From MPC 73461
P/2005 T4 (SWAN),e,160.0910,25.4354,41.3443,9.357229,0.0344337,0.93071119,168.0336,02/08.0/2019,2000,g 15.0,4.0
# From MPC 75706
P/2005 T5 (Broughton),e,21.3362,57.0262,304.4764,7.294241,0.0500304,0.55076887,243.8355,02/08.0/2019,2000,g 11.0,4.0
# From MPC 56954
P/2005 W3 (Kowalski),e,16.4105,210.2237,200.3072,6.343842,0.0616844,0.54289532,301.0484,02/08.0/2019,2000,g 12.0,4.0
# From MPC 75706
P/2005 XA54 (LONEOS-Hill),e,17.1208,143.7013,15.1666,6.049008,0.0662488,0.71035149,312.2212,02/08.0/2019,2000,g 14.0,4.0
# From MPC 75706
P/2005 Y2 (McNaught),e,19.1096,94.5179,194.3000,6.341889,0.0617129,0.46711876,321.5878,02/08.0/2019,2000,g  9.0,4.0
# From MPC 75707
P/2006 F1 (Kowalski),e,21.2778,124.7425,186.2668,4.671593,0.0976127,0.12053139,32.1314,02/08.0/2019,2000,g  8.0,4.0
# From MPC 56954
P/2006 F4 (Spacewatch),e,12.3885,184.0320,31.1703,3.525708,0.1488794,0.33803280,333.8257,02/08.0/2019,2000,g 15.0,4.0
# From MPC 58118
P/2006 H1 (McNaught),e,12.8087,359.9802,309.2603,5.779687,0.0709329,0.58104125,338.5314,02/08.0/2019,2000,g 12.5,4.0
# From MPC 75707
P/2006 HR30 (Siding Spring),e,31.8568,309.8221,117.3952,7.810062,0.0451567,0.84152029,200.1112,02/08.0/2019,2000,g 11.0,4.0
# From MPC 73914
C/2006 K4 (NEAT),e,111.5196,116.6984,233.6850,1126,0.0000261,0.99715773,0.0000,11/25.0520/2007,2000,g  6.0,4.0
# From MPC 82313
C/2006 OF2 (Broughton),h,09/09.6649/2008,30.1616,318.6349,95.7001,1.001520,2.450775,2000,5.5,4.0
# From MPC112388
C/2006 Q1 (McNaught),e,59.1123,199.3860,344.5510,2792,0.0000067,0.99900444,0.0000,07/03.4678/2008,2000,g  5.0,4.0
# From MPC 73461
P/2006 R1 (Siding Spring),e,160.0704,218.8353,249.2800,5.635654,0.0736695,0.70484308,335.6257,02/08.0/2019,2000,g 16.0,4.0
# From MPC 69905
P/2006 S1 (Christensen),e,12.3276,207.9050,133.6154,3.544140,0.1477195,0.59968221,321.6749,02/08.0/2019,2000,g 17.5,4.0
# From MPC105235
C/2006 S3 (LONEOS),h,04/12.7024/2012,166.0228,38.3520,140.1582,1.000080,5.152478,2000,2.0,4.0
# From MPC 75707
P/2006 S4 (Christensen),e,39.5672,36.1113,305.2798,6.294570,0.0624101,0.50683020,293.0315,02/08.0/2019,2000,g 11.0,4.0
# From MPC 60465
C/2006 S5 (Hill),e,10.0991,281.5535,182.2454,96.28351,0.0010432,0.97240574,0.0000,12/02.8216/2007,2000,g  8.0,4.0
# From MPC 66204
C/2006 U6 (Spacewatch),e,84.8012,180.1258,276.7103,2059,0.0000106,0.99877615,0.0000,05/30.4576/2008,2000,g  8.0,4.0
# From MPC 62580
C/2006 V1 (Catalina),e,31.3412,335.4283,253.1831,159.8590,0.0004876,0.98338777,0.0000,11/28.3412/2007,2000,g  8.0,4.0
# From MPC105235
P/2006 W1 (Gibbs),e,18.5371,152.3275,232.2233,5.819776,0.0702012,0.70771046,330.4684,02/08.0/2019,2000,g 12.0,4.0
# From MPC 82313
C/2006 W3 (Christensen),e,127.0749,113.3546,133.1750,3284,0.0000052,0.99905202,0.0000,07/04.2725/2009,2000,g  5.0,4.0
# From MPC 75707
P/2007 A2 (Christensen),e,26.4943,300.9249,186.8773,6.314517,0.0621146,0.55760931,273.6114,02/08.0/2019,2000,g 13.5,4.0
# From MPC 59319
P/2007 B1 (Christensen),e,12.3778,77.6639,46.8477,5.812255,0.0703375,0.58077612,309.5106,02/08.0/2019,2000,g 13.5,4.0
# From MPC112388
C/2007 B2 (Skiff),e,27.5548,14.7204,206.2225,701.1469,0.0000531,0.99575428,0.0000,08/24.3161/2008,2000,g  6.0,4.0
# From MPC 75707
P/2007 C2 (Catalina),e,8.7169,275.8254,179.4861,7.014618,0.0530515,0.46565247,221.2622,02/08.0/2019,2000,g 10.0,4.0
# From MPC 84315
C/2007 D1 (LINEAR),e,41.4962,171.0483,340.2979,2212,0.0000095,0.99600546,0.0000,06/14.6726/2007,2000,g  3.5,4.0
# From MPC 66464
C/2007 G1 (LINEAR),e,88.6526,79.0307,223.8930,10964,0.0000009,0.99975880,0.0000,11/16.0322/2008,2000,g  5.5,4.0
# From MPC 82314
P/2007 K2 (Gibbs),e,7.6531,188.6497,347.5345,7.255091,0.0504359,0.68467801,214.6936,02/08.0/2019,2000,g 14.0,4.0
# From MPC 82314
C/2007 K3 (Siding Spring),e,16.4192,263.1802,23.3030,1838,0.0000125,0.99889907,0.0000,04/24.6321/2008,2000,g  9.5,4.0
# From MPC 87475
C/2007 M1 (McNaught),e,139.7589,326.8668,52.6818,1148,0.0000253,0.99347761,0.0000,08/05.4889/2008,2000,g  6.0,4.0
# From MPC112388
C/2007 M2 (Catalina),e,80.9741,357.2403,220.7477,1865,0.0000122,0.99809914,0.0000,12/11.5806/2008,2000,g  8.0,4.0
# From MPC 73461
C/2007 N3 (Lulin),e,178.3761,338.2438,136.7280,1845,0.0000124,0.99933372,0.0000,01/09.9956/2009,2000,g  6.5,4.0
# From MPC 60925
P/2007 Q2 (Gilmore),e,10.2065,172.2319,162.8598,5.641636,0.0735523,0.66994861,311.5791,02/08.0/2019,2000,g 16.0,4.0
# From MPC 78183
C/2007 Q3 (Siding Spring),h,10/06.3358/2009,65.5336,149.4378,2.2846,1.000565,2.271493,2000,4.5,4.0
# From MPC 75514
P/2007 R1 (Larson),e,7.7277,180.3226,174.9454,6.078939,0.0657601,0.28907973,281.3486,02/08.0/2019,2000,g  8.0,4.0
# From MPC 75708
P/2007 R2 (Gibbs),e,1.2209,11.6804,352.3330,3.570131,0.1461093,0.54376326,274.3927,02/08.0/2019,2000,g 17.0,4.0
# From MPC 75708
